GPS BIIA-23 (PRN 18)    
1 22877U 93068A   18204.96188916 -.00000073  00000-0  00000-0 0  9996
2 22877  54.4499  81.9943 0145991  75.8036 236.9283  2.00567546181261
GPS BIIR-2  (PRN 13)    
1 24876U 97035A   18204.42292951  .00000080  00000-0  00000-0 0  9998
2 24876  55.4867 211.3452 0030614  87.0581 273.3272  2.00564713154076
GPS BIIR-3  (PRN 11)    
1 25933U 99055A   18204.81746330 -.00000077  00000-0  00000-0 0  9992
2 25933  51.9129  60.0935 0167816 102.5982 108.6158  2.00566480137708
GPS BIIR-4  (PRN 20)    
1 26360U 00025A   18204.83229198 -.00000048  00000-0  00000-0 0  9994
2 26360  53.2120 138.1391 0038369 119.3975 149.5848  2.00563571133399
GPS BIIR-5  (PRN 28)    
1 26407U 00040A   18204.88120539 -.00000100  00000-0  00000-0 0  9996
2 26407  56.4606 329.4616 0197045 272.9289   9.6801  2.00562938132076
GPS BIIR-6  (PRN 14)    
1 26605U 00071A   18204.90235642  .00000074  00000-0  00000-0 0  9994
2 26605  55.0601 208.9035 0102703 248.9964 314.5773  2.00571181129670
GPS BIIR-8  (PRN 16)    
1 27663U 03005A   18204.82022484 -.00000100  00000-0  00000-0 0  9999
2 27663  56.5245 329.2233 0098711  28.8917 329.7498  2.00564857113439
GPS BIIR-9  (PRN 21)    
1 27704U 03010A   18204.83407837 -.00000075  00000-0  00000-0 0  9992
2 27704  54.1209  81.5739 0245647 271.7109  56.2091  2.00564574112236
GPS BIIR-10 (PRN 22)    
1 28129U 03058A   18204.11817756 -.00000040  00000-0  00000-0 0  9994
2 28129  53.0250 141.0167 0074843 273.5894  85.5280  2.00552993106913
GPS BIIR-11 (PRN 19)    
1 28190U 04009A   18204.86506407 -.00000072  00000-0  00000-0 0  9994
2 28190  56.1863  30.0572 0096269  70.5347 107.1587  2.00558750105115
GPS BIIR-12 (PRN 23)    
1 28361U 04023A   18204.88721740  .00000068  00000-0  00000-0 0  9995
2 28361  54.0620 203.6074 0128166 226.6159 243.7219  2.00552927103178
GPS BIIR-13 (PRN 02)    
1 28474U 04045A   18204.69830347 -.00000075  00000-0  00000-0 0  9996
2 28474  54.4883  81.2073 0181478 254.6094  78.7018  2.00551259100550
GPS BIIRM-1 (PRN 17)    
1 28874U 05038A   18204.87800523 -.00000073  00000-0  00000-0 0  9994
2 28874  56.3259  27.3713 0126211 258.3068 312.5890  2.00574078 93967
GPS BIIRM-2 (PRN 31)    
1 29486U 06042A   18204.87830466  .00000010  00000-0  00000-0 0  9999
2 29486  55.1588 266.1988 0088081 351.3428 143.5941  2.00560288 86567
GPS BIIRM-3 (PRN 12)    
1 29601U 06052A   18204.63293362 -.00000100  00000-0  00000-0 0  9992
2 29601  56.5008 328.1472 0069329  56.6797 303.9829  2.00578102 85585
GPS BIIRM-4 (PRN 15)    
1 32260U 07047A   18204.45806644  .00000065  00000-0  00000-0 0  9994
2 32260  53.1864 199.6142 0102637  38.4694 322.2693  2.00550567 78964
GPS BIIRM-5 (PRN 29)    
1 32384U 07062A   18204.76413220 -.00000072  00000-0  00000-0 0  9995
2 32384  56.4009  27.9878 0006138  77.9854 279.1373  2.00565780 77699
GPS BIIRM-6 (PRN 07)    
1 32711U 08012A   18204.36658691  .00000007  00000-0  00000-0 0  9991
2 32711  54.8936 265.4892 0120686 217.0548 142.1823  2.00566240 75892
GPS BIIRM-8 (PRN 05)    
1 35752U 09043A   18204.68856094 -.00000039  00000-0  00000-0 0  9992
2 35752  54.3288 143.2315 0053739  34.6597 226.6048  2.00554550 65469
GPS BIIF-1  (PRN 25)    
1 36585U 10022A   18204.71679639 -.00000099  00000-0  00000-0 0  9994
2 36585  55.7900 324.6798 0072871  48.7514 337.2290  2.00570585 59718
GPS BIIF-2  (PRN 01)    
1 37753U 11036A   18204.80827354 -.00000072  00000-0  00000-0 0  9998
2 37753  55.6872  84.7736 0078705  36.7899 141.2775  2.00564612 51407
GPS BIIF-3  (PRN 24)    
1 38833U 12053A   18204.54700225  .00000015  00000-0  00000-0 0  9992
2 38833  53.9241 262.0032 0069095  29.0927 331.3694  2.00567512 42467
GPS BIIF-4  (PRN 27)    
1 39166U 13023A   18204.40594812 -.00000076  00000-0  00000-0 0  9996
2 39166  56.0218  24.2743 0059167  23.9309 336.3782  2.00562391 38006
GPS BIIF-5  (PRN 30)    
1 39533U 14008A   18204.40596863  .00000001  00000-0  00000-0 0  9993
2 39533  54.0673 267.3641 0036216 190.7631 169.2339  2.00558956 31821
GPS BIIF-6  (PRN 06)    
1 39741U 14026A   18204.68357806 -.00000073  00000-0  00000-0 0  9996
2 39741  55.6703  84.3015 0012451 294.5552  65.3725  2.00564670 30649
GPS BIIF-7  (PRN 09)    
1 40105U 14045A   18204.27550628  .00000074  00000-0  00000-0 0  9995
2 40105  54.5880 203.7563 0006770 109.5980 250.4956  2.00574301 29082
GPS BIIF-8  (PRN 03)    
1 40294U 14068A   18204.64879488 -.00000035  00000-0  00000-0 0  9996
2 40294  55.0801 144.5284 0014678  21.2764 338.7538  2.00558707 27310
GPS BIIF-9  (PRN 26)    
1 40534U 15013A   18204.28457242 -.00000101  00000-0  00000-0 0  9998
2 40534  54.7300 323.3809 0027821   1.3914 358.6218  2.00561578 24376
GPS BIIF-10  (PRN 08)   
1 40730U 15033A   18204.44684478 -.00000078  00000-0  00000-0 0  9992
2 40730  55.5516  23.7622 0035504 333.6646  26.1890  2.00572709 22139
GPS BIIF-11  (PRN 10)   
1 41019U 15062A   18204.49754927 -.00000035  00000-0  00000-0 0  9990
2 41019  55.0847 144.3385 0037388 205.0316 154.7576  2.00564400 19950
GPS BIIF-12  (PRN 32)   
1 41328U 16007A   18204.58537899  .00000072  00000-0  00000-0 0  9990
2 41328  54.8378 204.0441 0024199 219.8503 139.9923  2.00561859 18015
